STARLINK-1204
1 15203C 20012AB  21326.16822482  .01231588  00000-0  72172-2 0  3269
2 15203  53.0529 207.1880 0001292  62.3907  80.2551 15.76397799    12
